NORAD_CAT_ID,OBJECT_NAME,OBJECT_TYPE,EPOCH,MEAN_MOTION,ECCENTRICITY,INCLINATION,RA_OF_ASC_NODE,ARG_OF_PERICENTER,MEAN_ANOMALY,BSTAR,MEAN_MOTION_DOT,MEAN_MOTION_DDOT,TLE_LINE0,TLE_LINE1,TLE_LINE2,SEMIMAJOR_AXIS,PERIOD,APOGEE,PERIGEE,DECAYED
54201.0,STARLINK-5199,PAYLOAD,2024-03-14 04:48:45,15.08848731,0.0001543,53.2195,10.9589,86.1536,273.9633,0.00021305,3.105e-05,0.0,0 STARLINK-5199,1 54201U 22141AW  24074.20052213  .00003105  00000-0  21305-3 0  9997,2 54201  53.2195  10.9589 0001543  86.1536 273.9633 15.08848731 76701,6917.854,95.437,540.786,538.651,0.0
54201.0,STARLINK-5199,PAYLOAD,2024-03-15 04:39:32,15.08847028,0.0001319,53.2181,6.4993,80.4703,279.6438,0.00018853,2.714e-05,0.0,0 STARLINK-5199,1 54201U 22141AW  24075.19412365  .00002714  00000-0  18853-3 0  9993,2 54201  53.2181   6.4993 0001319  80.4703 279.6438 15.08847028 76859,6917.859,95.437,540.636,538.811,0.0
54201.0,STARLINK-5199,PAYLOAD,2024-03-16 01:19:32,15.08850447,0.0001895,53.2191,2.6346,72.5907,287.5292,0.00011418,1.53e-05,0.0,0 STARLINK-5199,1 54201U 22141AW  24076.05524215  .00001530  00000-0  11418-3 0  9992,2 54201  53.2191   2.6346 0001895  72.5907 287.5292 15.08850447 76751,6917.848,95.437,541.024,538.403,0.0
54201.0,STARLINK-5199,PAYLOAD,2024-03-16 18:48:47,15.08842589,0.0001223,53.2187,359.3637,93.7258,266.3874,3.3547e-05,2.46e-06,0.0,0 STARLINK-5199,1 54201U 22141AW  24076.78388474  .00000246  00000-0  33547-4 0  9998,2 54201  53.2187 359.3637 0001223  93.7258 266.3874 15.08842589 77097,6917.872,95.437,540.584,538.891,0.0
54201.0,STARLINK-5199,PAYLOAD,2024-03-17 04:21:06,15.0884134,0.0001285,53.2189,357.5787,91.1502,268.9638,2.8191e-05,1.61e-06,0.0,0 STARLINK-5199,1 54201U 22141AW  24077.18132556  .00000161  00000-0  28191-4 0  9996,2 54201  53.2189 357.5787 0001285  91.1502 268.9638 15.08841340 76928,6917.876,95.437,540.63,538.852,0.0
54201.0,STARLINK-5199,PAYLOAD,2024-03-17 21:50:20,15.08852988,0.0001165,53.2184,354.3079,96.9984,263.1141,-0.00015677,-2.783e-05,0.0,0 STARLINK-5199,1 54201U 22141AW  24077.90996041 -.00002783  00000-0 -15677-3 0  9991,2 54201  53.2184 354.3079 0001165  96.9984 263.1141 15.08852988 77035,6917.841,95.437,540.512,538.9,0.0
54201.0,STARLINK-5199,PAYLOAD,2024-03-18 04:11:52,15.08857718,0.0001321,53.2185,353.1178,88.8173,271.297,-1.7011e-05,-5.59e-06,0.0,0 STARLINK-5199,1 54201U 22141AW  24078.17491680 -.00000559  00000-0 -17011-4 0  9994,2 54201  53.2185 353.1178 0001321  88.8173 271.2970 15.08857718 77303,6917.826,95.436,540.605,538.777,0.0
54201.0,STARLINK-5199,PAYLOAD,2024-03-18 18:30:22,15.08835762,0.0001237,53.2181,350.4346,131.3494,228.7605,-2.6646e-05,-7.12e-06,0.0,0 STARLINK-5199,1 54201U 22141AW  24078.77108854 -.00000712  00000-0 -26646-4 0  9993,2 54201  53.2181 350.4346 0001237 131.3494 228.7605 15.08835762 77398,6917.893,95.438,540.614,538.903,0.0
54201.0,STARLINK-5199,PAYLOAD,2024-03-18 21:41:08,15.08835907,0.0001446,53.2168,349.8446,125.4444,234.6683,4.9121e-05,4.94e-06,0.0,0 STARLINK-5199,1 54201U 22141AW  24078.90356852  .00000494  00000-0  49121-4 0  9999,2 54201  53.2168 349.8446 0001446 125.4444 234.6683 15.08835907 77187,6917.893,95.438,540.758,538.758,0.0
54201.0,STARLINK-5199,PAYLOAD,2024-03-19 00:51:54,15.08835995,0.0001196,53.2182,349.2533,110.9698,249.1422,6.252e-05,7.07e-06,0.0,0 STARLINK-5199,1 54201U 22141AW  24079.03605045  .00000707  00000-0  62520-4 0  9990,2 54201  53.2182 349.2533 0001196 110.9698 249.1422 15.08835995 77208,6917.893,95.438,540.585,538.93,0.0
54201.0,STARLINK-5199,PAYLOAD,2024-03-19 21:31:54,15.08856195,0.0001015,53.2171,345.3795,101.4948,258.6158,0.00019562,2.828e-05,0.0,0 STARLINK-5199,1 54201U 22141AW  24079.89715860  .00002828  00000-0  19562-3 0  9994,2 54201  53.2171 345.3795 0001015 101.4948 258.6158 15.08856195 77561,6917.831,95.437,540.398,538.994,0.0
54201.0,STARLINK-5199,PAYLOAD,2024-03-20 00:42:40,15.08866236,0.0001122,53.2177,344.7891,100.408,259.7039,0.00063506,9.841e-05,0.0,0 STARLINK-5199,1 54201U 22141AW  24080.02963744  .00009841  00000-0  63506-3 0  9996,2 54201  53.2177 344.7891 0001122 100.4080 259.7039 15.08866236 77581,6917.8,95.436,540.441,538.889,0.0
54201.0,STARLINK-5199,PAYLOAD,2024-03-20 21:22:42,15.08844424,0.0001136,53.2173,340.9273,103.4314,256.6805,0.00013175,1.81e-05,0.0,0 STARLINK-5199,1 54201U 22141AW  24080.89076464  .00001810  00000-0  13175-3 0  9990,2 54201  53.2173 340.9273 0001136 103.4314 256.6805 15.08844424 77714,6917.867,95.437,540.518,538.946,0.0
54201.0,STARLINK-5199,PAYLOAD,2024-03-20 22:58:05,15.0884328,0.000139,53.2187,340.6341,119.7935,240.3196,0.00032069,4.82e-05,0.0,0 STARLINK-5199,1 54201U 22141AW  24080.95700502  .00004820  00000-0  32069-3 0  9991,2 54201  53.2187 340.6341 0001390 119.7935 240.3196 15.08843280 77490,6917.87,95.437,540.697,538.774,0.0
54201.0,STARLINK-5199,PAYLOAD,2024-03-21 10:05:47,15.08831492,0.0001054,53.2174,338.5501,78.7459,281.3651,0.00030068,4.5e-05,0.0,0 STARLINK-5199,1 54201U 22141AW  24081.42069123  .00004500  00000-0  30068-3 0  9993,2 54201  53.2174 338.5501 0001054  78.7459 281.3651 15.08831492 77798,6917.906,95.438,540.501,539.042,0.0
54201.0,STARLINK-5199,PAYLOAD,2024-03-21 22:48:52,15.08856415,9.69e-05,53.2162,336.1716,77.8127,282.2974,0.0009859,0.00015444,0.0,0 STARLINK-5199,1 54201U 22141AW  24081.95060719  .00015444  00000-0  98590-3 0  9996,2 54201  53.2162 336.1716 0000969  77.8127 282.2974 15.08856415 77647,6917.83,95.437,540.366,539.025,0.0
54201.0,STARLINK-5199,PAYLOAD,2024-03-22 01:59:38,15.08875705,0.0001046,53.2169,335.5775,77.7826,282.3283,0.0017825,0.00028222,0.0,0 STARLINK-5199,1 54201U 22141AW  24082.08308435  .00028222  00000-0  17825-2 0  9990,2 54201  53.2169 335.5775 0001046  77.7826 282.3283 15.08875705 77898,6917.771,95.435,540.36,538.913,0.0
54201.0,STARLINK-5199,PAYLOAD,2024-03-22 21:04:16,15.08843019,8.88e-05,53.2164,332.0099,60.4238,299.6843,0.0010905,0.00017111,0.0,0 STARLINK-5199,1 54201U 22141AW  24082.87797018  .00017111  00000-0  10905-2 0  9993,2 54201  53.2164 332.0099 0000888  60.4238 299.6843 15.08843019 78014,6917.871,95.437,540.35,539.122,0.0
54201.0,STARLINK-5199,PAYLOAD,2024-03-22 22:39:39,15.08850738,0.000121,53.2166,331.7074,91.4471,268.6659,0.0011782,0.00018518,0.0,0 STARLINK-5199,1 54201U 22141AW  24082.94420891  .00018518  00000-0  11782-2 0  9999,2 54201  53.2166 331.7074 0001210  91.4471 268.6659 15.08850738 77799,6917.848,95.437,540.55,538.876,0.0
54201.0,STARLINK-5199,PAYLOAD,2024-03-23 20:55:04,15.08846352,0.0001765,53.218,327.5461,54.6906,305.4251,0.0013756,0.00021676,0.0,0 STARLINK-5199,1 54201U 22141AW  24083.87157765  .00021676  00000-0  13756-2 0  9991,2 54201  53.2180 327.5461 0001765  54.6906 305.4251 15.08846352 78164,6917.861,95.437,540.947,538.505,0.0
54201.0,STARLINK-5199,PAYLOAD,2024-03-23 22:30:27,15.08847488,0.0001544,53.2171,327.2502,90.5872,269.5297,0.0012715,0.0002001,0.0,0 STARLINK-5199,1 54201U 22141AW  24083.93781529  .00020010  00000-0  12715-2 0  9994,2 54201  53.2171 327.2502 0001544  90.5872 269.5297 15.08847488 77949,6917.858,95.437,540.791,538.654,0.0
54201.0,STARLINK-5199,PAYLOAD,2024-03-24 09:38:09,15.08834923,0.0001417,53.2191,325.1654,121.3544,238.7587,0.00014736,2.058e-05,0.0,0 STARLINK-5199,1 54201U 22141AW  24084.40149558  .00002058  00000-0  14736-3 0  9995,2 54201  53.2191 325.1654 0001417 121.3544 238.7587 15.08834923 78248,6917.896,95.438,540.741,538.781,0.0
54201.0,STARLINK-5199,PAYLOAD,2024-03-24 22:21:14,15.08839828,0.0001835,53.2188,322.7867,108.6855,251.4336,0.00088413,0.00013811,0.0,0 STARLINK-5199,1 54201U 22141AW  24084.93142333  .00013811  00000-0  88413-3 0  9999,2 54201  53.2188 322.7867 0001835 108.6855 251.4336 15.08839828 78096,6917.881,95.438,541.015,538.476,0.0
54201.0,STARLINK-5199,PAYLOAD,2024-03-25 01:32:01,15.08856849,0.000178,53.2187,322.1906,105.3992,254.7197,0.0012014,0.00018893,0.0,0 STARLINK-5199,1 54201U 22141AW  24085.06390134  .00018893  00000-0  12014-2 0  9996,2 54201  53.2187 322.1906 0001780 105.3992 254.7197 15.08856849 78349,6917.829,95.436,540.925,538.463,0.0
54201.0,STARLINK-5199,PAYLOAD,2024-03-25 20:36:37,15.08880774,0.0001773,53.2183,318.6235,111.2367,248.8815,0.0016264,0.0002572,0.0,0 STARLINK-5199,1 54201U 22141AW  24085.85877222  .00025720  00000-0  16264-2 0  9999,2 54201  53.2183 318.6235 0001773 111.2367 248.8815 15.08880774 78462,6917.756,95.435,540.847,538.394,0.0
54201.0,STARLINK-5199,PAYLOAD,2024-03-25 22:12:00,15.08879449,0.00013,53.2161,318.3285,99.0611,261.0528,0.0015434,0.00024387,0.0,0 STARLINK-5199,1 54201U 22141AW  24085.92501129  .00024387  00000-0  15434-2 0  9993,2 54201  53.2161 318.3285 0001300  99.0611 261.0528 15.08879449 78242,6917.76,95.435,540.524,538.726,0.0
54201.0,STARLINK-5199,PAYLOAD,2024-03-26 20:27:25,15.0883471,0.0001433,53.2173,314.1635,124.6354,235.4773,0.00096488,0.00015099,0.0,0 STARLINK-5199,1 54201U 22141AW  24086.85237888  .00015099  00000-0  96488-3 0  9993,2 54201  53.2173 314.1635 0001433 124.6354 235.4773 15.08834710 78614,6917.897,95.438,540.753,538.77,0.0
54201.0,STARLINK-5199,PAYLOAD,2024-03-26 22:02:48,15.08826013,0.0001236,53.2171,313.8664,105.4085,254.7044,0.00097205,0.0001521,0.0,0 STARLINK-5199,1 54201U 22141AW  24086.91862073  .00015210  00000-0  97205-3 0  9993,2 54201  53.2171 313.8664 0001236 105.4085 254.7044 15.08826013 78396,6917.923,95.438,540.643,538.933,0.0
54201.0,STARLINK-5199,PAYLOAD,2024-03-27 07:35:07,15.08832666,0.0001182,53.2166,312.0826,107.9288,252.1833,0.0007718,0.00012014,0.0,0 STARLINK-5199,1 54201U 22141AW  24087.31606355  .00012014  00000-0  77180-3 0  9996,2 54201  53.2166 312.0826 0001182 107.9288 252.1833 15.08832666 78684,6917.903,95.438,540.586,538.95,0.0
54201.0,STARLINK-5199,PAYLOAD,2024-03-27 21:53:36,15.08843767,0.0001357,53.2164,309.4095,120.6388,239.4738,0.00063729,9.87e-05,0.0,0 STARLINK-5199,1 54201U 22141AW  24087.91222362  .00009870  00000-0  63729-3 0  9994,2 54201  53.2164 309.4095 0001357 120.6388 239.4738 15.08843767 78548,6917.869,95.437,540.673,538.795,0.0
